[{"name":"OCEANSAT-2","l1":"1 35931U 09051A   26183.78348841 -.00000224  00000+0 -12729-3 0  9992","l2":"2 35931  98.2326 169.0782 0016484 189.6271 170.4582 13.99659127881515","cat":"other"},{"name":"WORLDVIEW-2 (WV-2)","l1":"1 35946U 09055A   26183.75105471  .00000162  00000+0  68215-4 0  9990","l2":"2 35946  98.4762 256.9880 0004694 161.2519 198.8842 14.37904081877886","cat":"science"},{"name":"SMOS","l1":"1 36036U 09059A   26183.75650288  .00000290  00000+0  10645-3 0  9991","l2":"2 36036  98.4426  10.8633 0001306  87.1942 272.9395 14.39781159875695","cat":"other"},{"name":"YAOGAN-7","l1":"1 36110U 09069A   26183.65957382  .00000579  00000+0  87169-4 0  9995","l2":"2 36110  98.0051  69.4298 0024437 352.8193   7.2664 14.78025724891918","cat":"classified"},{"name":"TANDEM-X","l1":"1 36605U 10030A   26182.61687690  .00000599  00000+0  31706-4 0  9999","l2":"2 36605  97.4457 190.1177 0001792  96.8129 263.3310 15.19152803888836","cat":"other"},{"name":"CARTOSAT-2B","l1":"1 36795U 10035A   26183.76844524  .00000877  00000+0  12689-3 0  9999","l2":"2 36795  97.9943 234.2185 0012065 135.1529 225.0659 14.78604056862150","cat":"science"},{"name":"YAOGAN-10","l1":"1 36834U 10038A   26183.78776228  .00002106  00000+0  25087-3 0  9996","l2":"2 36834  97.8967 207.0675 0001757  85.1359  30.1710 14.85398124859526","cat":"classified"},{"name":"COSMO-SKYMED 4","l1":"1 37216U 10060A   26183.76863935  .00000358  00000+0  51539-4 0  9995","l2":"2 37216  97.8884   7.1422 0001464  83.8109 276.3271 14.82158098846872","cat":"other"},{"name":"RESOURCESAT-2","l1":"1 37387U 11015A   26183.78438902  .00000112  00000+0  71196-4 0  9998","l2":"2 37387  98.7638 251.1180 0010849 206.9048 153.1567 14.21603694788399","cat":"science"},{"name":"HAIYANG-2A","l1":"1 37781U 11043A   26183.76537968 -.00000029  00000+0  15653-4 0  9991","l2":"2 37781  99.3385 186.0914 0004368  61.7977 298.3612 13.73853837748796","cat":"other"},{"name":"RASAT","l1":"1 37791U 11044D   26183.79114848  .00001010  00000+0  18339-3 0  9997","l2":"2 37791  98.0585 274.9502 0021355 139.8342 317.1353 14.68183328795478","cat":"other"},{"name":"SRMSAT","l1":"1 37841U 11058D   26183.56263183  .00000399  00000+0  72828-4 0  9993","l2":"2 37841  19.9731 326.4081 0011821  13.5504  59.6043 14.11578853759999","cat":"other"},{"name":"PLEIADES 1A","l1":"1 38012U 11076F   26183.78339022  .00000427  00000+0  10168-3 0  9994","l2":"2 38012  98.1976 258.6766 0001763  86.1254  61.9231 14.58540962774261","cat":"science"},{"name":"ZIYUAN 1-02C (ZY 1-02C)","l1":"1 38038U 11079A   26183.80776980  .00000467  00000+0  16772-3 0  9997","l2":"2 38038  98.4068 250.7895 0005123 260.0522 209.6751 14.38227291761455","cat":"other"},{"name":"ARIRANG-3 (KOMPSAT-3)","l1":"1 38338U 12025B   26183.77167558  .00000511  00000+0  11074-3 0  9993","l2":"2 38338  98.1178 140.9633 0006748  70.5600 289.6330 14.62220253753621","cat":"science"},{"name":"EXACTVIEW-1 (ADS-1B)","l1":"1 38709U 12039C   26183.61802316  .00000150  00000+0  84067-4 0  9993","l2":"2 38709  98.9795 301.3580 0011807 124.4875 235.7420 14.24989248724900","cat":"other"},{"name":"SPOT 6","l1":"1 38755U 12047A   26183.77050953  .00000438  00000+0  10411-3 0  9992","l2":"2 38755  98.2116 250.8970 0001245  76.4868 283.6470 14.58532348735322","cat":"science"},{"name":"PLEIADES 1B","l1":"1 39019U 12068A   26183.72061368  .00000459  00000+0  10858-3 0  9994","l2":"2 39019  98.1947 258.5585 0001710  83.2156 276.9238 14.58570592723111","cat":"science"},{"name":"GOKTURK 2","l1":"1 39030U 12073A   26183.81333642  .00000567  00000+0  90152-4 0  9996","l2":"2 39030  97.6808  20.4607 0001024  62.8352 297.2962 14.75558829726812","cat":"other"},{"name":"LANDSAT 8","l1":"1 39084U 13008A   26183.75018704  .00000398  00000+0  98514-4 0  9998","l2":"2 39084  98.2297 253.7002 0001350  93.4816 266.6537 14.57105194700168","cat":"science"},{"name":"SARAL","l1":"1 39086U 13009A   26183.75279244 -.00000055  00000+0 -40912-5 0  9991","l2":"2 39086  98.5553  10.1230 0000968 206.9835 153.1299 14.32893401697834","cat":"other"},{"name":"GAOFEN-1","l1":"1 39150U 13018A   26183.78501348  .00000797  00000+0  12141-3 0  9991","l2":"2 39150  97.9093 255.5360 0015993 212.2055 147.8180 14.76507525710545","cat":"other"},{"name":"VNREDSAT 1","l1":"1 39160U 13021B   26183.73125582  .00000815  00000+0  16112-3 0  9996","l2":"2 39160  97.9070 236.5506 0001690  81.1569 278.9826 14.64873663702566","cat":"other"},{"name":"ARIRANG-5 (KOMPSAT-5)","l1":"1 39227U 13042A   26183.79559995  .00002562  00000+0  18710-3 0  9995","l2":"2 39227  97.6198  10.2754 0005167  84.9378 275.2438 15.04544704706202","cat":"science"},{"name":"SKYSAT-A","l1":"1 39418U 13066C   26183.60070610  .00003484  00000+0  19977-3 0  9995","l2":"2 39418  97.3803 232.5070 0019720 259.8177 100.0830 15.13058802690813","cat":"other"},{"name":"DUBAISAT-2","l1":"1 39419U 13066D   26183.77362058  .00003815  00000+0  23644-3 0  9998","l2":"2 39419  97.4573 173.5102 0010612 349.7254  10.3757 15.10299090688748","cat":"other"},{"name":"GPM-CORE","l1":"1 39574U 14009C   26183.74732937  .00010440  00000+0  22559-3 0  9998","l2":"2 39574  64.9710 256.0031 0011243 257.8826 102.1056 15.44894510700219","cat":"other"},{"name":"SENTINEL-1A","l1":"1 39634U 14016A   26183.72748355 -.00000141  00000+0 -20270-4 0  9990","l2":"2 39634  98.1774 191.0332 0001401  85.4953 274.6407 14.59199121652287","cat":"science"},{"name":"KAZEOSAT 1","l1":"1 39731U 14024A   26183.77197201  .00000325  00000+0  11181-3 0  9992","l2":"2 39731  98.3205 255.8317 0001155  77.7286 282.4033 14.42086610640804","cat":"other"},{"name":"ALOS-2","l1":"1 39766U 14029A   26183.76236233  .00001249  00000+0  17407-3 0  9996","l2":"2 39766  97.9231 280.7031 0001625  90.7515 269.3883 14.79471987653882","cat":"other"},{"name":"KAZEOSAT 2","l1":"1 40010U 14033A   26183.79018433  .00001121  00000+0  13571-3 0  9995","l2":"2 40010  97.5394  22.5770 0006936 269.1496  90.8925 14.85490275651277","cat":"other"}]